NORAD_CAT_ID,OBJECT_NAME,OBJECT_TYPE,EPOCH,MEAN_MOTION,ECCENTRICITY,INCLINATION,RA_OF_ASC_NODE,ARG_OF_PERICENTER,MEAN_ANOMALY,BSTAR,MEAN_MOTION_DOT,MEAN_MOTION_DDOT,TLE_LINE0,TLE_LINE1,TLE_LINE2,SEMIMAJOR_AXIS,PERIOD,APOGEE,PERIGEE,DECAYED
52585.0,STARLINK-3906,PAYLOAD,2023-02-07 13:58:00,15.08838745,0.0001226,53.2172,134.4224,90.001,270.1123,8.4869e-05,1.063e-05,0.0,0 STARLINK-3906,1 52585U 22051BB  23038.58195414  .00001063  00000-0  84869-4 0  9997,2 52585  53.2172 134.4224 0001226  90.0010 270.1123 15.08838745 41659,6917.884,95.438,540.597,538.901,0.0
52585.0,STARLINK-3906,PAYLOAD,2023-02-08 05:51:53,15.08827887,0.0001075,53.217,131.4509,90.0849,270.0266,3.4166e-05,2.56e-06,0.0,0 STARLINK-3906,1 52585U 22051BB  23039.24436374  .00000256  00000-0  34166-4 0  9992,2 52585  53.2170 131.4509 0001075  90.0849 270.0266 15.08827887 41755,6917.917,95.438,540.526,539.039,0.0
52585.0,STARLINK-3906,PAYLOAD,2023-02-08 12:13:25,15.0883725,0.0001058,53.2173,130.2629,63.0228,297.0873,1.936e-05,2e-07,0.0,0 STARLINK-3906,1 52585U 22051BB  23039.50931972  .00000020  00000-0  19360-4 0  9993,2 52585  53.2173 130.2629 0001058  63.0228 297.0873 15.08837250 41792,6917.889,95.438,540.486,539.022,0.0
52585.0,STARLINK-3906,PAYLOAD,2023-02-09 10:28:48,15.08848052,0.0001296,53.2169,126.1003,79.3061,280.8077,0.00022022,3.219e-05,0.0,0 STARLINK-3906,1 52585U 22051BB  23040.43667030  .00003219  00000-0  22022-3 0  9999,2 52585  53.2169 126.1003 0001296  79.3061 280.8077 15.08848052 41862,6917.856,95.437,540.617,538.824,0.0
52585.0,STARLINK-3906,PAYLOAD,2023-02-09 12:04:11,15.08852349,0.0001338,53.2166,125.8018,90.3941,269.7204,0.00023966,3.53e-05,0.0,0 STARLINK-3906,1 52585U 22051BB  23040.50290708  .00003530  00000-0  23966-3 0  9995,2 52585  53.2166 125.8018 0001338  90.3941 269.7204 15.08852349 41949,6917.843,95.437,540.633,538.782,0.0
52585.0,STARLINK-3906,PAYLOAD,2023-02-10 11:54:58,15.08852908,0.0001307,53.2155,121.3409,106.3736,253.74,0.00025588,3.788e-05,0.0,0 STARLINK-3906,1 52585U 22051BB  23041.49650847  .00003788  00000-0  25588-3 0  9995,2 52585  53.2155 121.3409 0001307 106.3736 253.7400 15.08852908 42097,6917.841,95.437,540.61,538.802,0.0
52585.0,STARLINK-3906,PAYLOAD,2023-02-11 21:18:04,15.08844644,0.0001268,53.215,115.0931,83.8449,276.2688,-7.2239e-05,-1.438e-05,0.0,0 STARLINK-3906,1 52585U 22051BB  23042.88754867 -.00001438  00000-0 -72239-4 0  9994,2 52585  53.2150 115.0931 0001268  83.8449 276.2688 15.08844644 42308,6917.866,95.437,540.608,538.854,0.0
52585.0,STARLINK-3906,PAYLOAD,2023-02-12 13:11:55,15.0884917,0.000133,53.2148,112.1214,116.4417,243.6712,0.00015994,2.259e-05,0.0,0 STARLINK-3906,1 52585U 22051BB  23043.54994567  .00002259  00000-0  15994-3 0  9995,2 52585  53.2148 112.1214 0001330 116.4417 243.6712 15.08849170 42333,6917.852,95.437,540.637,538.797,0.0
52585.0,STARLINK-3906,PAYLOAD,2023-02-13 05:05:47,15.08831428,0.0001018,53.2156,109.1497,98.782,261.3288,-0.00015112,-2.691e-05,0.0,0 STARLINK-3906,1 52585U 22051BB  23044.21235729 -.00002691  00000-0 -15112-3 0  9992,2 52585  53.2156 109.1497 0001018  98.7820 261.3288 15.08831428 42505,6917.907,95.438,540.476,539.067,0.0
52585.0,STARLINK-3906,PAYLOAD,2023-02-13 11:27:19,15.08842976,9.88e-05,53.2137,107.9612,114.9259,245.1836,2.3868e-05,9.2e-07,0.0,0 STARLINK-3906,1 52585U 22051BB  23044.47731126  .00000092  00000-0  23868-4 0  9991,2 52585  53.2137 107.9612 0000988 114.9259 245.1836 15.08842976 42544,6917.871,95.437,540.42,539.053,0.0
52585.0,STARLINK-3906,PAYLOAD,2023-02-14 03:21:11,15.08829389,0.0001167,53.2145,104.9847,99.901,260.2113,2.4323e-05,9.9e-07,0.0,0 STARLINK-3906,1 52585U 22051BB  23045.13972086  .00000099  00000-0  24323-4 0  9991,2 52585  53.2145 104.9847 0001167  99.9010 260.2113 15.08829389 42647,6917.913,95.438,540.585,538.971,0.0
52585.0,STARLINK-3906,PAYLOAD,2023-02-14 12:53:30,15.08837584,0.0001085,53.2153,103.2004,101.4979,258.6135,5.2536e-05,5.48e-06,0.0,0 STARLINK-3906,1 52585U 22051BB  23045.53716180  .00000548  00000-0  52536-4 0  9992,2 52585  53.2153 103.2004 0001085 101.4979 258.6135 15.08837584 42635,6917.888,95.438,540.503,539.002,0.0
52585.0,STARLINK-3906,PAYLOAD,2023-02-14 20:50:25,15.08851908,0.0001017,53.2169,101.7125,91.3866,268.7243,4.4797e-06,-2.16e-06,0.0,0 STARLINK-3906,1 52585U 22051BB  23045.86835190 -.00000216  00000-0  44797-5 0  9995,2 52585  53.2169 101.7125 0001017  91.3866 268.7243 15.08851908 42757,6917.844,95.437,540.413,539.005,0.0
52585.0,STARLINK-3906,PAYLOAD,2023-02-15 09:33:31,15.08839026,7.72e-05,53.2158,99.3332,81.9104,278.1976,0.00029527,4.415e-05,0.0,0 STARLINK-3906,1 52585U 22051BB  23046.39827862  .00004415  00000-0  29527-3 0  9997,2 52585  53.2158  99.3332 0000772  81.9104 278.1976 15.08839026 42838,6917.883,95.438,540.282,539.214,0.0
52585.0,STARLINK-3906,PAYLOAD,2023-02-15 12:44:16,15.08860932,0.0001074,53.2155,98.739,87.4821,272.6294,0.00042936,6.556e-05,0.0,0 STARLINK-3906,1 52585U 22051BB  23046.53074669  .00006556  00000-0  42936-3 0  9999,2 52585  53.2155  98.7390 0001074  87.4821 272.6294 15.08860932 42859,6917.816,95.436,540.424,538.938,0.0
52585.0,STARLINK-3906,PAYLOAD,2023-02-16 09:24:17,15.08850877,9.42e-05,53.2155,94.8737,108.0281,252.0814,0.00025142,3.717e-05,0.0,0 STARLINK-3906,1 52585U 22051BB  23047.39186760  .00003717  00000-0  25142-3 0  9996,2 52585  53.2155  94.8737 0000942 108.0281 252.0814 15.08850877 42985,6917.847,95.437,540.364,539.06,0.0
52585.0,STARLINK-3906,PAYLOAD,2023-02-16 14:10:25,15.08876586,0.0001065,53.2167,93.9813,96.3107,263.8007,0.00047065,7.218e-05,0.0,0 STARLINK-3906,1 52585U 22051BB  23047.59057262  .00007218  00000-0  47065-3 0  9990,2 52585  53.2167  93.9813 0001065  96.3107 263.8007 15.08876586 43010,6917.769,95.435,540.37,538.897,0.0
52585.0,STARLINK-3906,PAYLOAD,2023-02-16 20:32:00,15.08817792,0.0002042,53.2156,92.7944,72.2917,287.8298,-0.00039428,-6.554e-05,0.0,0 STARLINK-3906,1 52585U 22051BB  23047.85556471 -.00006554  00000-0 -39428-3 0  9993,2 52585  53.2156  92.7944 0002042  72.2917 287.8298 15.08817792 42985,6917.948,95.439,541.226,538.401,0.0
52585.0,STARLINK-3906,PAYLOAD,2023-02-17 12:25:52,15.08821009,0.0001302,53.2158,89.8156,89.5517,270.5624,-0.00037037,-6.174e-05,0.0,0 STARLINK-3906,1 52585U 22051BB  23048.51796626 -.00006174  00000-0 -37037-3 0  9997,2 52585  53.2158  89.8156 0001302  89.5517 270.5624 15.08821009 43152,6917.938,95.439,540.704,538.903,0.0
52585.0,STARLINK-3906,PAYLOAD,2023-02-17 14:01:15,15.08825678,0.000136,53.2152,89.5189,90.3859,269.7289,-0.0002859,-4.833e-05,0.0,0 STARLINK-3906,1 52585U 22051BB  23048.58420493 -.00004833  00000-0 -28590-3 0  9994,2 52585  53.2152  89.5189 0001360  90.3859 269.7289 15.08825678 43098,6917.924,95.438,540.73,538.848,0.0
52585.0,STARLINK-3906,PAYLOAD,2023-02-17 23:33:34,15.08828144,0.0001206,53.2149,87.7357,86.6092,273.5038,-1.9765e-05,-6.02e-06,0.0,0 STARLINK-3906,1 52585U 22051BB  23048.98164779 -.00000602  00000-0 -19765-4 0  9995,2 52585  53.2149  87.7357 0001206  86.6092 273.5038 15.08828144 43228,6917.917,95.438,540.616,538.947,0.0
52585.0,STARLINK-3906,PAYLOAD,2023-02-18 12:16:39,15.0884086,0.0001256,53.2151,85.3568,84.3655,275.748,0.00035135,5.308e-05,0.0,0 STARLINK-3906,1 52585U 22051BB  23049.51156845  .00005308  00000-0  35135-3 0  9994,2 52585  53.2151  85.3568 0001256  84.3655 275.7480 15.08840860 43239,6917.878,95.438,540.612,538.874,0.0
52585.0,STARLINK-3906,PAYLOAD,2023-02-19 13:42:49,15.08863305,0.000117,53.2147,80.5995,76.4471,283.6652,0.00065582,0.00010171,0.0,0 STARLINK-3906,1 52585U 22051BB  23050.57140411  .00010171  00000-0  65582-3 0  9997,2 52585  53.2147  80.5995 0001170  76.4471 283.6652 15.08863305 43461,6917.809,95.436,540.484,538.865,0.0
52585.0,STARLINK-3906,PAYLOAD,2023-02-19 18:28:59,15.08827036,0.0001468,53.2154,79.7064,84.1155,276.0004,-0.00063716,-0.0001041,0.0,0 STARLINK-3906,1 52585U 22051BB  23050.77013214 -.00010410  00000-0 -63716-3 0  9994,2 52585  53.2154  79.7064 0001468  84.1155 276.0004 15.08827036 43492,6917.92,95.438,540.801,538.769,0.0
52585.0,STARLINK-3906,PAYLOAD,2023-02-20 11:58:14,15.08836247,0.0001113,53.2154,76.4363,91.1138,268.9982,0.00054326,8.368e-05,0.0,0 STARLINK-3906,1 52585U 22051BB  23051.49877622  .00008368  00000-0  54326-3 0  9999,2 52585  53.2154  76.4363 0001113  91.1138 268.9982 15.08836247 43538,6917.892,95.438,540.527,538.987,0.0
52585.0,STARLINK-3906,PAYLOAD,2023-02-20 13:33:37,15.08837311,0.0001097,53.2154,76.1388,92.4511,267.6607,0.00065917,0.00010218,0.0,0 STARLINK-3906,1 52585U 22051BB  23051.56501658  .00010218  00000-0  65917-3 0  9995,2 52585  53.2154  76.1388 0001097  92.4511 267.6607 15.08837311 43614,6917.889,95.438,540.513,538.995,0.0
52585.0,STARLINK-3906,PAYLOAD,2023-02-21 05:27:28,15.08869339,0.0001078,53.2149,73.1651,93.5972,266.5143,0.0014929,0.0002357,0.0,0 STARLINK-3906,1 52585U 22051BB  23052.22741123  .00023570  00000-0  14929-2 0  9993,2 52585  53.2149  73.1651 0001078  93.5972 266.5143 15.08869339 43719,6917.791,95.436,540.401,538.91,0.0
52585.0,STARLINK-3906,PAYLOAD,2023-02-21 13:24:23,15.08878857,0.0001076,53.2148,71.6782,92.2491,267.8624,0.0012594,0.00019833,0.0,0 STARLINK-3906,1 52585U 22051BB  23052.55860434  .00019833  00000-0  12594-2 0  9999,2 52585  53.2148  71.6782 0001076  92.2491 267.8624 15.08878857 43696,6917.762,95.435,540.371,538.882,0.0
52585.0,STARLINK-3906,PAYLOAD,2023-02-21 18:10:35,15.08771142,0.000243,53.2139,70.7862,83.5019,276.625,-0.0021197,-0.00033804,0.0,0 STARLINK-3906,1 52585U 22051BB  23052.75735153 -.00033804  00000-0 -21197-2 0  9995,2 52585  53.2139  70.7862 0002430  83.5019 276.6250 15.08771142 43792,6918.091,95.442,541.637,538.275,0.0
52585.0,STARLINK-3906,PAYLOAD,2023-02-22 08:29:20,15.08244851,0.0001497,53.2146,68.1103,118.2435,241.8708,-0.0097715,-0.00150116,0.0,0 STARLINK-3906,1 52585U 22051BB  23053.35371141 -.00150116  00000-0 -97715-2 0  9990,2 52585  53.2146  68.1103 0001497 118.2435 241.8708 15.08244851 43883,6919.7,95.475,542.601,540.529,0.0
